satname,norad_id,inclination_deg,eccentricity,mean_motion_rev_per_day,perigee_km,apogee_km,l1,l2
STARLINK-1008,44714,53.1034,0.0001904,15.18442818,509.234607534082,511.85781810152275,1 44714U 19074B   26018.66668981  .01400194  00000+0  61632-1 0  9995,2 44714  53.1034  50.9019 0001904  58.8771  27.1848 15.18442818  5740
STARLINK-1012,44718,53.1039,0.0001906,15.18345145,509.52859650087976,512.1546751568576,1 44718U 19074F   26018.66668981  .01391345  00000+0  61448-1 0  9991,2 44718  53.1039  50.9090 0001906  86.7356 114.1417 15.18345145  5754
STARLINK-1017,44723,53.0481,0.0001347,15.20060266,504.7314120422152,506.5859065928353,1 44723U 19074L   26018.44024445  .00017044  00000+0  79302-3 0  9994,2 44723  53.0481  42.5626 0001347 172.3315 187.7701 15.20060266341316
STARLINK-1019,44724,53.0488,0.0009651,15.65396166,365.5849787169773,378.6142854642385,1 44724U 19074M   26018.66668981  .00098680  00000+0  96257-3 0  9991,2 44724  53.0488  25.4181 0009651  17.0608 171.1331 15.65396166  5948
STARLINK-1020,44725,53.0543,0.0001495,15.06391686,546.2016958491658,548.2723826869078,1 44725U 19074N   26018.39371615 -.00001454  00000+0 -78757-4 0  9998,2 44725  53.0543  72.4077 0001495 104.7896 255.3259 15.06391686340884
STARLINK-1031,44736,53.045,0.0005746,15.7014482,354.61188747150936,362.35361088726586,1 44736U 19074Z   26018.66668981  .00141891  00000+0  11346-2 0  9992,2 44736  53.0450  11.1729 0005746  53.2708 263.8671 15.70144820  5900
STARLINK-1036,44741,53.0549,0.0001677,15.40989438,442.04392919721704,444.33180155706486,1 44741U 19074AE  26018.66668981  .01703292  00000+0  36841-1 0  9994,2 44741  53.0549  68.7149 0001677  91.0680 336.1476 15.40989438  5699
STARLINK-1039,44744,53.0495,0.0002904,15.17362658,511.8136184745317,515.8164642201464,1 44744U 19074AH  26018.49309771  .00009280  00000+0  47414-3 0  9992,2 44744  53.0495  85.0481 0002904  48.8676 311.2568 15.17362658340727
STARLINK-1042,44747,53.0465,0.0003654,15.46986968,423.05994405084493,428.0320755944231,1 44747U 19074AL  26018.30949419  .00021843  00000+0  43310-3 0  9994,2 44747  53.0465 336.0132 0003654  48.2589 311.8729 15.46986968342263
STARLINK-1043,44748,53.055,0.000197,15.4787365,421.60767255636347,424.28729984392703,1 44748U 19074AM  26018.41918980  .00020793  00000+0  40036-3 0  9991,2 44748  53.0550  76.3234 0001970 330.2582  29.8313 15.47873650340843
STARLINK-1046,44751,53.0547,0.0001899,15.3790969,450.9944468735648,453.5886436350529,1 44751U 19074AQ  26018.48494306  .00049479  00000+0  13098-2 0  9992,2 44751  53.0547  88.5786 0001899  38.1573 321.9564 15.37909690340672
STARLINK-1047,44752,53.072,0.00045,15.31259392,468.97115384430526,475.136325510015,1 44752U 19074AR  26018.39251362  .00010143  00000+0  34274-3 0  9992,2 44752  53.0720  20.7477 0004500  65.9107 294.2364 15.31259392341632
STARLINK-1048,44753,53.0546,0.000129,15.41102814,441.97339893630124,443.7332144354259,1 44753U 19074AS  26018.66668981  .00055144  00000+0  13128-2 0  9996,2 44753  53.0546  48.1567 0001290  62.0571 220.6129 15.41102814  5792
STARLINK-1053,44758,53.0369,0.0003577,15.73788189,345.67577442184574,350.48771131049216,1 44758U 19074AX  26018.25434546  .00095995  00000+0  66339-3 0  9995,2 44758  53.0369 337.2480 0003577  76.9852 283.1565 15.73788189342222
STARLINK-1060,44765,53.0421,0.0003217,15.91698534,295.38191062134865,299.6770344297711,1 44765U 19074BE  26018.66668981  .00250746  34569-4  75902-3 0  9995,2 44765  53.0421  16.3382 0003217  25.8432 351.9995 15.91698534  5909
STARLINK-1063,44768,53.0786,0.0001111,15.13281895,525.4324424107244,526.9665859841798,1 44768U 19074BH  26018.66668981  .00119247  00000+0  65317-2 0  9994,2 44768  53.0786  91.1082 0001111  20.8670  32.3282 15.13281895  5792
STARLINK-1067,44771,53.0556,0.0003703,15.44967657,428.95150868199926,433.9947059274691,1 44771U 19074BL  26018.44307826  .00050072  00000+0  10483-2 0  9996,2 44771  53.0556  85.7357 0003703  28.7754 331.3455 15.44967657340713
STARLINK-1068,44772,53.0536,0.0007979,15.44910423,426.20776704873606,437.07481124255537,1 44772U 19074BM  26018.36937149  .00016540  00000+0  35420-3 0  9996,2 44772  53.0536  63.9694 0007979  18.9470 341.1831 15.44910423341008
STARLINK-1112,44925,53.0418,0.0002063,15.77607157,335.8370537099627,338.607811011756,1 44925U 20001M   26018.66668981  .00125524  00000+0  73052-3 0  9992,2 44925  53.0418 136.2130 0002063 215.2703  47.6295 15.77607157  5884
STARLINK-1114,44927,53.0534,3.87e-05,15.41515052,441.3732632341007,441.9011137562893,1 44927U 20001P   26018.63908552  .00073119  00000+0  17099-2 0  9992,2 44927  53.0534 208.0351 0000387 103.4250 256.6798 15.41515052332358
STARLINK-1123,44930,53.0544,0.0001406,15.0640118,546.2342379118272,548.1816449093521,1 44930U 20001S   26018.49876818  .00000587  00000+0  58326-4 0  9998,2 44930  53.0544 211.9344 0001406  95.7928 264.3222 15.06401180332283
STARLINK-1144,44933,53.0357,0.0006595,15.9095126,295.215713801078,304.02367488091386,1 44933U 20001V   26018.66668981  .00344011  55357-4  10769-2 0  9990,2 44933  53.0357 107.6705 0006595 342.6387 106.2268 15.90951260  5954
STARLINK-1094,44941,53.0705,0.0002579,15.11252932,530.5956143074909,534.1600578599428,1 44941U 20001AD  26018.66668981  .00048837  00000+0  28685-2 0  9992,2 44941  53.0705 191.1490 0002579  82.9540  56.7883 15.11252932  5744
STARLINK-1122,44949,53.0725,2.9e-05,15.11444461,531.5936392461981,531.9944152457783,1 44949U 20001AM  26018.66668981  .00044774  00000+0  26190-2 0  9995,2 44949  53.0725 191.1427 0000290  78.7910 303.1201 15.11444461  5749
STARLINK-1080,44961,53.0532,0.0002581,15.40294967,443.47694677003983,446.99917297594584,1 44961U 20001AZ  26018.56672490  .00102221  00000+0  24755-2 0  9995,2 44961  53.0532 166.3804 0002581 300.8888  59.1862 15.40294967332931
STARLINK-1090,44968,53.0562,0.0001342,15.06398122,546.2879311948718,548.1466962926797,1 44968U 20001BG  26018.60197596 -.00000339  00000+0 -38765-5 0  9994,2 44968  53.0562 171.4722 0001342  88.1494 271.9649 15.06398122332869
STARLINK-1132,45044,53.1592,0.0001374,15.3365365,463.9822128901269,465.8626856267829,1 45044U 20006A   26018.66668981  .00119998  00000+0  35901-2 0  9998,2 45044  53.1592 129.7726 0001374  85.7440 184.4644 15.33653650  5846
STARLINK-1131,45047,53.0555,0.0001218,15.06407188,546.3460230700484,548.0330326122312,1 45047U 20006D   26018.67022115  .00000692  00000+0  65301-4 0  9994,2 45047  53.0555 151.7077 0001218  85.9611 274.1517 15.06407188328915
STARLINK-1134,45048,53.0353,0.0003765,15.3701427,452.37143928318346,457.5167493472027,1 45048U 20006E   26018.54190435  .00067095  00000+0  18201-2 0  9997,2 45048  53.0353 115.6133 0003765  46.4157 313.7158 15.37014270329417
STARLINK-1156,45054,53.0551,0.0001607,15.06395569,546.1122326527529,548.3380440440169,1 45054U 20006L   26018.64067638 -.00000611  00000+0 -22133-4 0  9997,2 45054  53.0551 151.2995 0001607  86.9947 273.1226 15.06395569328913
STARLINK-1159,45057,53.0488,0.0003381,15.65364436,369.9085643147682,374.4731360070473,1 45057U 20006P   26018.66668981  .00162112  00000+0  15707-2 0  9990,2 45057  53.0488 123.4713 0003381 270.9920 182.0374 15.65364436  5953
STARLINK-1166,45060,53.0592,0.0001339,15.33423216,464.6916116490356,466.5243665571179,1 45060U 20006S   26018.66668981  .01054618  00000+0  29518-1 0  9990,2 45060  53.0592 149.7666 0001339  81.3810 288.7613 15.33423216  5850
STARLINK-1169,45061,53.0561,0.0001172,15.06406872,546.3788479455243,548.0021447106637,1 45061U 20006T   26018.60749710  .00000605  00000+0  59467-4 0  9990,2 45061  53.0561 151.4501 0001172  85.8320 274.2803 15.06406872328910
STARLINK-1171,45062,53.0503,0.0007545,15.46971731,420.4572727601544,430.72409783726926,1 45062U 20006U   26018.66668981  .00108256  00000+0  20891-2 0  9995,2 45062  53.0503 130.4257 0007545 198.3761  16.6820 15.46971731  5791
STARLINK-1133,45064,53.1534,0.0001678,15.29309208,476.72566572234973,479.0265437202943,1 45064U 20006W   26018.66668981  .00065975  00000+0  22817-2 0  9997,2 45064  53.1534 130.0998 0001678  90.8280 118.6210 15.29309208  5699
STARLINK-1167,45071,53.1599,0.0001433,15.29331502,476.82701790071405,478.7919321604568,1 45071U 20006AD  26018.66668981  .00035410  00000+0  12345-2 0  9991,2 45071  53.1599 129.9095 0001433  79.2452  96.2456 15.29331502  5790
STARLINK-1168,45072,53.1601,0.0001122,15.29339705,477.01572483047676,478.5541937181388,1 45072U 20006AE  26018.66668981  .00032588  00000+0  11373-2 0  9995,2 45072  53.1601 129.9709 0001122  82.8362  38.6920 15.29339705  5791
STARLINK-1172,45074,53.1567,0.0001349,15.29316564,476.9292465908229,478.7789929949431,1 45074U 20006AG  26018.66668981  .00022275  00000+0  78288-3 0  9998,2 45074  53.1567 130.1509 0001349  95.6797 226.9054 15.29316564  5755
STARLINK-1153,45080,53.1597,0.0001563,15.29332297,476.73551499509813,478.8786831204634,1 45080U 20006AN  26018.66668981  .00033033  00000+0  11528-2 0  9992,2 45080  53.1597 129.8263 0001563  78.9316 182.4924 15.29332297  5793
STARLINK-1151,45081,53.0524,0.000676,15.48837381,415.5303480078601,424.72159954840754,1 45081U 20006AP  26018.66668981  .00129468  00000+0  23341-2 0  9997,2 45081  53.0524 121.7147 0006760 329.3536 180.8270 15.48837381  5832
STARLINK-1185,45087,53.0561,0.0001472,15.06386462,546.2336328537913,548.2724676845901,1 45087U 20006AV  26018.51905165 -.00001306  00000+0 -68840-4 0  9992,2 45087  53.0561 111.8456 0001472  94.1924 265.9233 15.06386462329460
STARLINK-1183,45088,53.0542,0.0001072,15.06390389,546.4986139025068,547.9834149487988,1 45088U 20006AW  26018.54116372 -.00001507  00000+0 -82305-4 0  9995,2 45088  53.0542 111.7472 0001072  85.9251 274.1861 15.06390389329466
STARLINK-1152,45096,53.0412,0.0003152,15.32347255,466.6530828490786,470.969399020164,1 45096U 20006BE  26018.47274989  .00038602  00000+0  12241-2 0  9999,2 45096  53.0412  82.2014 0003152  50.1913 309.9365 15.32347255329879
